ONEWEB-0037             
1 45440U 20020S   23263.86460238  .00001014  00000+0  28264-2 0  9993
2 45440  87.8950 219.7422 0001844  86.8566 273.2773 13.11415577171587
ONEWEB-0042             
1 45441U 20020T   23263.93116345  .00000203  00000+0  55041-3 0  9992
2 45441  87.8952 219.7426 0001999  86.8967 273.2389 13.09869004171566
ONEWEB-0098             
1 45442U 20020U   23263.94300129  .00000541  00000+0  14911-2 0  9994
2 45442  87.8954 219.7500 0002257  76.0304 284.1075 13.11417373171548
ONEWEB-0055             
1 45443U 20020V   23263.92922398  .00000014  00000+0  33129-5 0  9991
2 45443  87.8955 219.7563 0002108  79.4282 280.7083 13.11415887171523
ONEWEB-0093             
1 45444U 20020W   23263.90273044 -.00000292  00000+0 -86106-3 0  9998
2 45444  87.8944 219.7473 0002374  80.5581 279.5816 13.11416662171579
ONEWEB-0029             
1 45445U 20020X   23263.92073097 -.00000570  00000+0 -16439-2 0  9997
2 45445  87.8954 219.7501 0002132  84.9239 275.2132 13.11419912171556
ONEWEB-0068             
1 45446U 20020Y   23263.89530249 -.00000256  00000+0 -75891-3 0  9990
2 45446  87.8943 219.7463 0002400  84.4443 275.6958 13.11413788171502
ONEWEB-0046             
1 45447U 20020Z   23263.89212566 -.00000080  00000+0 -26239-3 0  9997
2 45447  87.8944 219.7590 0001914  84.2058 275.9288 13.11415216171501
